INTELSAT 902 (IS-902)   
1 26900U 01039A   26168.53041905 -.00000291  00000+0  00000+0 0  9991
2 26900   6.1182  71.7793 0004329  11.2555 323.5996  1.00271937 90699
INTELSAT 904 (IS-904)   
1 27380U 02007A   26168.46286183 -.00000234  00000+0  00000+0 0  9998
2 27380   6.9214  69.1812 0006496   5.3617 326.3067  1.00270446 51768
DIRECTV 5 (TEMPO 1)     
1 27426U 02023A   26168.46919676 -.00000064  00000+0  00000+0 0  9998
2 27426   4.8792  75.3070 0003340  25.4681 223.7552  1.00271727 88123
INTELSAT 905 (IS-905)   
1 27438U 02027A   26168.79813424  .00000085  00000+0  00000+0 0  9997
2 27438   6.7559  69.7936 0003828  21.5992 324.7612  1.00271612 51367
GALAXY 3C (G-3C)        
1 27445U 02030A   26168.59285478 -.00000159  00000+0  00000+0 0  9992
2 27445   3.7335  77.9723 0001581  30.9364 275.5108  1.00270957 46492
INTELSAT 906 (IS-906)   
1 27513U 02041A   26168.81066779  .00000004  00000+0  00000+0 0  9994
2 27513   5.8041  72.9148 0004583   7.8525 181.2835  1.00273090 87034
GALAXY 13 (HORIZONS-1)  
1 27954U 03044A   26168.72455022  .00000127  00000+0  00000+0 0  9996
2 27954   1.4205  83.8589 0002243 354.1572 298.7829  1.00271264 46570
INTELSAT 10-02          
1 28358U 04022A   26167.66137045 -.00000013  00000+0  00000+0 0  9991
2 28358   0.0133 313.0240 0000200 252.2268 296.7595  1.00271868 80551
DIRECTV 8               
1 28659U 05019A   26168.73061691  .00000000  00000+0  00000+0 0  9999
2 28659   0.0196   6.0983 0002924  87.9951 315.8645  1.00270994 77075
GALAXY 28 (G-28)        
1 28702U 05022A   26168.81997433 -.00000207  00000+0  00000+0 0  9993
2 28702   3.3000  78.9273 0002866   6.7719  88.4837  1.00271232 51984
GALAXY 16 (G-16)        
1 29236U 06023A   26168.66330090 -.00000132  00000+0  00000+0 0  9998
2 29236   0.0098  74.2551 0002466   9.4034 322.0397  1.00271496 72974
DIRECTV 9S              
1 29494U 06043A   26168.66286757 -.00000119  00000+0  00000+0 0  9991
2 29494   2.4228  80.8962 0004914  12.9614 309.4916  1.00270853 51387
GALAXY 17 (G-17)        
1 31307U 07016B   26168.80870762 -.00000213  00000+0  00000+0 0  9994
2 31307   2.9745  79.8932 0004605  17.8418  14.4431  1.00271782 69814
INTELSAT 11 (IS-11)     
1 32253U 07044B   26168.77863413 -.00000235  00000+0  00000+0 0  9991
2 32253   3.5678  78.6617 0002376  89.6249 141.3192  0.99050558 68452
HORIZONS-2              
1 32388U 07063B   26168.81087428 -.00000260  00000+0  00000+0 0  9998
2 32388   2.6045  80.6186 0003775   2.8489  40.6863  1.00268289 67821
DIRECTV 11              
1 32729U 08013A   26168.59198813 -.00000130  00000+0  00000+0 0  9995
2 32729   0.0106 249.6020 0000252 114.3635  15.8127  1.00268228 45593
GALAXY 18 (G-18)        
1 32951U 08024A   26168.65862088  .00000020  00000+0  00000+0 0  9990
2 32951   0.0123  45.8146 0002742  41.3276 292.8739  1.00272522 45857
INTELSAT 25 (IS-25)     
1 33153U 08034A   26168.84903737 -.00000207  00000+0  00000+0 0  9992
2 33153   2.7124  80.3640 0003371  60.5162 189.5770  0.99034489 65697
GALAXY 19 (G-19)        
1 33376U 08045A   26168.66373425 -.00000144  00000+0  00000+0 0  9996
2 33376   0.0349 264.0716 0002465 186.1240 317.6674  1.00271179 64906
FM-5                    
1 35493U 09034A   26168.80836095 -.00000205  00000+0  00000+0 0  9998
2 35493   0.0180 297.4888 0000858   6.6331 166.7795  1.00269034 46658
INTELSAT 14 (IS-14)     
1 36097U 09064A   26168.81659432 -.00000279  00000+0  00000+0 0  9992
2 36097   0.0147 305.8787 0002259 142.3365  66.8278  1.00270172 60619
INTELSAT 15 (IS-15)     
1 36106U 09067A   26168.82611904 -.00000190  00000+0  00000+0 0  9991
2 36106   0.0146 327.4145 0002082 122.7462 198.4547  1.00270247 41232
DIRECTV 12              
1 36131U 09075A   26168.66260757 -.00000108  00000+0  00000+0 0  9995
2 36131   0.0147 116.8023 0000258 315.2517 329.6722  1.00267604 46555
INTELSAT 16 (IS-16)     
1 36397U 10006A   26168.52614317 -.00000249  00000+0  00000+0 0  9991
2 36397   0.0129 318.2938 0001868 142.8692 277.8144  1.00272551 59652
XM-5                    
1 37185U 10053A   26168.73139691 -.00000028  00000+0  00000+0 0  9994
2 37185   0.0620 273.1690 0002911 287.8014 213.1085  1.00269997 57482
INTELSAT 17 (IS-17)     
1 37238U 10065B   26168.83771970 -.00000007  00000+0  00000+0 0  9996
2 37238   0.0047 334.1071 0002612 125.3694 174.1842  1.00271770 53253
INTELSAT 28 (IS-28)     
1 37392U 11016A   26167.74987700 -.00000229  00000+0  00000+0 0  9999
2 37392   1.8056  82.6255 0003610   6.9956  53.6278  1.00269732 53288
INTELSAT 18 (IS-18)     
1 37834U 11056A   26168.78990087  .00000047  00000+0  00000+0 0  9998
2 37834   0.0303 278.3951 0001661 167.4035 284.5972  1.00270713 53813
INTELSAT 22 (IS-22)     
1 38098U 12011A   26168.83976402 -.00000064  00000+0  00000+0 0  9994
2 38098   0.0128  41.9905 0001542  49.7450 188.7673  1.00272322  7196
INTELSAT 19 (IS-19)     
1 38356U 12030A   26168.78712751 -.00000062  00000+0  00000+0 0  9999
2 38356   0.0171 354.3103 0002889 101.1328 259.9507  1.00271261 50459
INTELSAT 20 (IS-20)     
1 38740U 12043A   26167.94447006 -.00000027  00000+0  00000+0 0  9996
2 38740   0.0215  79.6898 0001930  97.6903 136.3348  1.00271141 50747
